{"type": "FeatureCollection", "features": [ {"type": "Feature", "properties": {"norad_id": 66551, "name": "UNKNOWN", "group": "last-30-days", "lat": 52.87154619130054, "lon": -40.510422100089045, "alt_km": 328.59273950043735, "timestamp": "2025-12-05T16:54:13.486332+00:00", "meta": {"OBJECT_NAME": "UNKNOWN", "OBJECT_ID": "2025-271AE", "EPOCH": "2025-12-02T16:00:03.000096", "MEAN_MOTION": 15.87051116, "ECCENTRICITY": 7.17e-05, "INCLINATION": 53.1571, "RA_OF_ASC_NODE": 236.7807, "ARG_OF_PERICENTER": 110.7411, "MEAN_ANOMALY": 313.9012, "EPHEMERIS_TYPE": 0, "CLASSIFICATION_TYPE": "U", "NORAD_CAT_ID": 66551, "ELEMENT_SET_NO": 999, "REV_AT_EPOCH": 262, "BSTAR": -0.0074303, "MEAN_MOTION_DOT": -0.01709685, "MEAN_MOTION_DDOT": 0}, "tle": {"line1": "1 66551U 25271AE  25336.66670139 -.01709685  00000+0 -74303-2 0  9993", "line2": "2 66551  53.1571 236.7807 0000717 110.7411 313.9012 15.87051116  2624"}}, "geometry": {"type": "Point", "coordinates": [-40.510422100089045, 52.87154619130054]}}, {"type": "Feature", "properties": {"norad_id": 66554, "name": "GLOBAL-33", "group": "last-30-days", "lat": 40.747929226173525, "lon": -155.52025718554472, "alt_km": 465.7618079412214, "timestamp": "2025-12-05T16:54:13.486341+00:00", "meta": {"OBJECT_NAME": "GLOBAL-33", "OBJECT_ID": "2025-267A", "EPOCH": "2025-12-05T07:03:58.397760", "MEAN_MOTION": 15.31371294, "ECCENTRICITY": 0.00052253, "INCLINATION": 42.0193, "RA_OF_ASC_NODE": 99.9672, "ARG_OF_PERICENTER": 358.9658, "MEAN_ANOMALY": 1.1168, "EPHEMERIS_TYPE": 0, "CLASSIFICATION_TYPE": "U", "NORAD_CAT_ID": 66554, "ELEMENT_SET_NO": 999, "REV_AT_EPOCH": 226, "BSTAR": 0.00071443326, "MEAN_MOTION_DOT": 0.00021935, "MEAN_MOTION_DDOT": 0}, "tle": {"line1": "1 66554U 25267A   25339.29442590  .00021935  00000+0  71443-3 0  9996", "line2": "2 66554  42.0193  99.9672 0005225 358.9658   1.1168 15.31371294  2260"}}, "geometry": {"type": "Point", "coordinates": [-155.52025718554472, 40.747929226173525]}}, {"type": "Feature", "properties": {"norad_id": 66555, "name": "ELECTRON KICK STAGE R/B", "group": "last-30-days", "lat": 24.449407888665405, "lon": -112.82539269802749, "alt_km": 468.7165901938779, "timestamp": "2025-12-05T16:54:13.486351+00:00", "meta": {"OBJECT_NAME": "ELECTRON KICK STAGE R/B", "OBJECT_ID": "2025-267B", "EPOCH": "2025-12-04T15:15:31.817952", "MEAN_MOTION": 15.32232828, "ECCENTRICITY": 0.00072797, "INCLINATION": 42.0175, "RA_OF_ASC_NODE": 103.6834, "ARG_OF_PERICENTER": 353.8025, "MEAN_ANOMALY": 6.2722, "EPHEMERIS_TYPE": 0, "CLASSIFICATION_TYPE": "U", "NORAD_CAT_ID": 66555, "ELEMENT_SET_NO": 999, "REV_AT_EPOCH": 216, "BSTAR": 0.0014703471, "MEAN_MOTION_DOT": 0.00046832, "MEAN_MOTION_DDOT": 0}, "tle": {"line1": "1 66555U 25267B   25338.63578493  .00046832  00000+0  14703-2 0  9994", "line2": "2 66555  42.0175 103.6834 0007279 353.8025   6.2722 15.32232828  2168"}}, "geometry": {"type": "Point", "coordinates": [-112.82539269802749, 24.449407888665405]}}, {"type": "Feature", "properties": {"norad_id": 66557, "name": "STARLINK-35699", "group": "last-30-days", "lat": -41.770378147924234, "lon": 89.13799733820726, "alt_km": 372.6531270247551, "timestamp": "2025-12-05T16:54:13.486361+00:00", "meta": {"OBJECT_NAME": "STARLINK-35699", "OBJECT_ID": "2025-268A", "EPOCH": "2025-12-05T06:00:02.000160", "MEAN_MOTION": 15.67855488, "ECCENTRICITY": 0.00015753, "INCLINATION": 42.9996, "RA_OF_ASC_NODE": 165.3009, "ARG_OF_PERICENTER": 261.4576, "MEAN_ANOMALY": 335.1464, "EPHEMERIS_TYPE": 0, "CLASSIFICATION_TYPE": "U", "NORAD_CAT_ID": 66557, "ELEMENT_SET_NO": 999, "REV_AT_EPOCH": 346, "BSTAR": -0.019852252, "MEAN_MOTION_DOT": -0.01984622, "MEAN_MOTION_DDOT": 0}, "tle": {"line1": "1 66557U 25268A   25339.25002315 -.01984622  00000+0 -19852-1 0  9991", "line2": "2 66557  42.9996 165.3009 0001575 261.4576 335.1464 15.67855488  3469"}}, "geometry": {"type": "Point", "coordinates": [89.13799733820726, -41.770378147924234]}}, {"type": "Feature", "properties": {"norad_id": 66558, "name": "STARLINK-35695", "group": "last-30-days", "lat": -41.37097490965162, "lon": 91.63655892418514, "alt_km": 372.622794995139, "timestamp": "2025-12-05T16:54:13.486370+00:00", "meta": {"OBJECT_NAME": "STARLINK-35695", "OBJECT_ID": "2025-268B", "EPOCH": "2025-12-05T06:00:02.000160", "MEAN_MOTION": 15.67856906, "ECCENTRICITY": 0.00016255, "INCLINATION": 42.9995, "RA_OF_ASC_NODE": 165.2964, "ARG_OF_PERICENTER": 261.382, "MEAN_ANOMALY": 337.1386, "EPHEMERIS_TYPE": 0, "CLASSIFICATION_TYPE": "U", "NORAD_CAT_ID": 66558, "ELEMENT_SET_NO": 999, "REV_AT_EPOCH": 346, "BSTAR": -0.019878436, "MEAN_MOTION_DOT": -0.01987069, "MEAN_MOTION_DDOT": 0}, "tle": {"line1": "1 66558U 25268B   25339.25002315 -.01987069  00000+0 -19878-1 0  9998", "line2": "2 66558  42.9995 165.2964 0001625 261.3820 337.1386 15.67856906  3466"}}, "geometry": {"type": "Point", "coordinates": [91.63655892418514, -41.37097490965162]}}, {"type": "Feature", "properties": {"norad_id": 66559, "name": "STARLINK-35419", "group": "last-30-days", "lat": -40.918314352818534, "lon": 94.102400705882, "alt_km": 372.63434637018327, "timestamp": "2025-12-05T16:54:13.486380+00:00", "meta": {"OBJECT_NAME": "STARLINK-35419", "OBJECT_ID": "2025-268C", "EPOCH": "2025-12-05T06:00:02.000160", "MEAN_MOTION": 15.67862119, "ECCENTRICITY": 0.00015864, "INCLINATION": 42.9996, "RA_OF_ASC_NODE": 165.2922, "ARG_OF_PERICENTER": 262.6943, "MEAN_ANOMALY": 337.7401, "EPHEMERIS_TYPE": 0, "CLASSIFICATION_TYPE": "U", "NORAD_CAT_ID": 66559, "ELEMENT_SET_NO": 999, "REV_AT_EPOCH": 346, "BSTAR": -0.019937002, "MEAN_MOTION_DOT": -0.01992567, "MEAN_MOTION_DDOT": 0}, "tle": {"line1": "1 66559U 25268C   25339.25002315 -.01992567  00000+0 -19937-1 0  9994", "line2": "2 66559  42.9996 165.2922 0001586 262.6943 337.7401 15.67862119  3465"}}, "geometry": {"type": "Point", "coordinates": [94.102400705882, -40.918314352818534]}}, {"type": "Feature", "properties": {"norad_id": 66560, "name": "STARLINK-35411", "group": "last-30-days", "lat": -40.41381280062696, "lon": 96.5300662810971, "alt_km": 372.55901333841666, "timestamp": "2025-12-05T16:54:13.486389+00:00", "meta": {"OBJECT_NAME": "STARLINK-35411", "OBJECT_ID": "2025-268D", "EPOCH": "2025-12-05T06:00:02.000160", "MEAN_MOTION": 15.67854043, "ECCENTRICITY": 0.00016567, "INCLINATION": 42.9994, "RA_OF_ASC_NODE": 165.2872, "ARG_OF_PERICENTER": 266.8611, "MEAN_ANOMALY": 335.501, "EPHEMERIS_TYPE": 0, "CLASSIFICATION_TYPE": "U", "NORAD_CAT_ID": 66560, "ELEMENT_SET_NO": 999, "REV_AT_EPOCH": 346, "BSTAR": -0.019916423, "MEAN_MOTION_DOT": -0.01990229, "MEAN_MOTION_DDOT": 0}, "tle": {"line1": "1 66560U 25268D   25339.25002315 -.01990229  00000+0 -19916-1 0  9996", "line2": "2 66560  42.9994 165.2872 0001656 266.8611 335.5010 15.67854043  3464"}}, "geometry": {"type": "Point", "coordinates": [96.5300662810971, -40.41381280062696]}}, {"type": "Feature", "properties": {"norad_id": 66561, "name": "STARLINK-35305", "group": "last-30-days", "lat": -39.254573457140346, "lon": 101.27685995413081, "alt_km": 372.60327466827584, "timestamp": "2025-12-05T16:54:13.486398+00:00", "meta": {"OBJECT_NAME": "STARLINK-35305", "OBJECT_ID": "2025-268E", "EPOCH": "2025-12-05T06:00:02.000160", "MEAN_MOTION": 15.67865081, "ECCENTRICITY": 0.00015963, "INCLINATION": 42.9995, "RA_OF_ASC_NODE": 165.2776, "ARG_OF_PERICENTER": 262.5231, "MEAN_ANOMALY": 343.6569, "EPHEMERIS_TYPE": 0, "CLASSIFICATION_TYPE": "U", "NORAD_CAT_ID": 66561, "ELEMENT_SET_NO": 999, "REV_AT_EPOCH": 341, "BSTAR": -0.019930274, "MEAN_MOTION_DOT": -0.01992198, "MEAN_MOTION_DDOT": 0}, "tle": {"line1": "1 66561U 25268E   25339.25002315 -.01992198  00000+0 -19930-1 0  9990", "line2": "2 66561  42.9995 165.2776 0001596 262.5231 343.6569 15.67865081  3411"}}, "geometry": {"type": "Point", "coordinates": [101.27685995413081, -39.254573457140346]}}, {"type": "Feature", "properties": {"norad_id": 66562, "name": "STARLINK-35579", "group": "last-30-days", "lat": -39.85814090143941, "lon": 98.92421364175978, "alt_km": 372.59377122221304, "timestamp": "2025-12-05T16:54:13.486408+00:00", "meta": {"OBJECT_NAME": "STARLINK-35579", "OBJECT_ID": "2025-268F", "EPOCH": "2025-12-05T06:00:02.000160", "MEAN_MOTION": 15.6786427, "ECCENTRICITY": 0.00016307, "INCLINATION": 42.9994, "RA_OF_ASC_NODE": 165.2819, "ARG_OF_PERICENTER": 262.5597, "MEAN_ANOMALY": 341.7056, "EPHEMERIS_TYPE": 0, "CLASSIFICATION_TYPE": "U", "NORAD_CAT_ID": 66562, "ELEMENT_SET_NO": 999, "REV_AT_EPOCH": 346, "BSTAR": -0.019944306, "MEAN_MOTION_DOT": -0.01993401, "MEAN_MOTION_DDOT": 0}, "tle": {"line1": "1 66562U 25268F   25339.25002315 -.01993401  00000+0 -19944-1 0  9994", "line2": "2 66562  42.9994 165.2819 0001630 262.5597 341.7056 15.67864270  3467"}}, "geometry": {"type": "Point", "coordinates": [98.92421364175978, -39.85814090143941]}}, {"type": "Feature", "properties": {"norad_id": 66563, "name": "STARLINK-35437", "group": "last-30-days", "lat": -38.60389679521675, "lon": 103.58799228685822, "alt_km": 372.5542159817387, "timestamp": "2025-12-05T16:54:13.486417+00:00", "meta": {"OBJECT_NAME": "STARLINK-35437", "OBJECT_ID": "2025-268G", "EPOCH": "2025-12-05T06:00:02.000160", "MEAN_MOTION": 15.67864157, "ECCENTRICITY": 0.00016949, "INCLINATION": 42.9995, "RA_OF_ASC_NODE": 165.2724, "ARG_OF_PERICENTER": 261.5543, "MEAN_ANOMALY": 346.5453, "EPHEMERIS_TYPE": 0, "CLASSIFICATION_TYPE": "U", "NORAD_CAT_ID": 66563, "ELEMENT_SET_NO": 999, "REV_AT_EPOCH": 346, "BSTAR": -0.01994541, "MEAN_MOTION_DOT": -0.01993542, "MEAN_MOTION_DDOT": 0}, "tle": {"line1": "1 66563U 25268G   25339.25002315 -.01993542  00000+0 -19945-1 0  9992", "line2": "2 66563  42.9995 165.2724 0001694 261.5543 346.5453 15.67864157  3462"}}, "geometry": {"type": "Point", "coordinates": [103.58799228685822, -38.60389679521675]}}]}